NORAD_CAT_ID,OBJECT_NAME,OBJECT_TYPE,EPOCH,MEAN_MOTION,ECCENTRICITY,INCLINATION,RA_OF_ASC_NODE,ARG_OF_PERICENTER,MEAN_ANOMALY,BSTAR,MEAN_MOTION_DOT,MEAN_MOTION_DDOT,TLE_LINE0,TLE_LINE1,TLE_LINE2,SEMIMAJOR_AXIS,PERIOD,APOGEE,PERIGEE,DECAYED
50197.0,STARLINK-3267,PAYLOAD,2023-12-31 21:41:10,15.08835756,0.0001451,53.2158,225.0083,96.8927,263.2231,1.4186e-05,-6.2e-07,0.0,0 STARLINK-3267,1 50197U 21125AT  23365.90358801 -.00000062  00000-0  14186-4 0  9999,2 50197  53.2158 225.0083 0001451  96.8927 263.2231 15.08835756116195,6917.893,95.438,540.762,538.755,0.0
50197.0,STARLINK-3267,PAYLOAD,2024-01-01 19:56:33,15.08843899,0.0001392,53.2155,220.8466,93.7366,266.3785,6.7863e-05,7.92e-06,0.0,0 STARLINK-3267,1 50197U 21125AT  24001.83094147  .00000792  00000-0  67863-4 0  9998,2 50197  53.2155 220.8466 0001392  93.7366 266.3785 15.08843899115809,6917.868,95.437,540.696,538.771,0.0
50197.0,STARLINK-3267,PAYLOAD,2024-01-01 21:31:56,15.08846639,0.0001413,53.2157,220.5481,96.211,263.9043,7.7139e-05,9.4e-06,0.0,0 STARLINK-3267,1 50197U 21125AT  24001.89717918  .00000940  00000-0  77139-4 0  9994,2 50197  53.2157 220.5481 0001413  96.2110 263.9043 15.08846639116349,6917.86,95.437,540.703,538.748,0.0
50197.0,STARLINK-3267,PAYLOAD,2024-01-02 00:42:42,15.0884632,0.0001399,53.2154,219.9543,94.8886,265.2266,8.4234e-05,1.053e-05,0.0,0 STARLINK-3267,1 50197U 21125AT  24002.02965892  .00001053  00000-0  84234-4 0  9996,2 50197  53.2154 219.9543 0001399  94.8886 265.2266 15.08846320116365,6917.861,95.437,540.694,538.758,0.0
50197.0,STARLINK-3267,PAYLOAD,2024-01-02 19:47:20,15.08836704,0.0001375,53.2153,216.3852,100.2079,259.9068,5.4521e-05,5.8e-06,0.0,0 STARLINK-3267,1 50197U 21125AT  24002.82454638  .00000580  00000-0  54521-4 0  9995,2 50197  53.2153 216.3852 0001375 100.2079 259.9068 15.08836704115957,6917.89,95.438,540.707,538.804,0.0
50197.0,STARLINK-3267,PAYLOAD,2024-01-03 21:13:31,15.08837732,0.0001345,53.2155,211.627,93.8381,266.2765,-2.6087e-05,-7.03e-06,0.0,0 STARLINK-3267,1 50197U 21125AT  24003.88438999 -.00000703  00000-0 -26087-4 0  9999,2 50197  53.2155 211.6270 0001345  93.8381 266.2765 15.08837732116645,6917.887,95.438,540.683,538.822,0.0
50197.0,STARLINK-3267,PAYLOAD,2024-01-03 22:48:54,15.08837389,0.0001342,53.2155,211.3297,92.1548,267.9598,-2.9818e-05,-7.62e-06,0.0,0 STARLINK-3267,1 50197U 21125AT  24003.95063044 -.00000762  00000-0 -29818-4 0  9992,2 50197  53.2155 211.3297 0001342  92.1548 267.9598 15.08837389116128,6917.888,95.438,540.682,538.825,0.0
50197.0,STARLINK-3267,PAYLOAD,2024-01-04 21:04:18,15.08839505,0.0001323,53.2155,207.1674,87.2296,272.8847,6.5946e-05,7.62e-06,0.0,0 STARLINK-3267,1 50197U 21125AT  24004.87798764  .00000762  00000-0  65946-4 0  9998,2 50197  53.2155 207.1674 0001323  87.2296 272.8847 15.08839505116791,6917.882,95.438,540.662,538.832,0.0
50197.0,STARLINK-3267,PAYLOAD,2024-01-05 12:58:09,15.08838478,0.0001354,53.2156,204.1938,84.7892,275.3254,7.7663e-05,9.48e-06,0.0,0 STARLINK-3267,1 50197U 21125AT  24005.54038888  .00000948  00000-0  77663-4 0  9992,2 50197  53.2156 204.1938 0001354  84.7892 275.3254 15.08838478116361,6917.885,95.438,540.687,538.813,0.0
50197.0,STARLINK-3267,PAYLOAD,2024-01-05 19:19:42,15.0884009,0.000137,53.2155,203.0044,83.8137,276.3011,8.64e-05,1.087e-05,0.0,0 STARLINK-3267,1 50197U 21125AT  24005.80534797  .00001087  00000-0  86400-4 0  9995,2 50197  53.2155 203.0044 0001370  83.8137 276.3011 15.08840090116934,6917.88,95.438,540.693,538.797,0.0
50197.0,STARLINK-3267,PAYLOAD,2024-01-06 17:35:06,15.08841065,0.0001327,53.2154,198.841,91.0965,269.0179,2.4527e-05,1.02e-06,0.0,0 STARLINK-3267,1 50197U 21125AT  24006.73270848  .00000102  00000-0  24527-4 0  9991,2 50197  53.2154 198.8410 0001327  91.0965 269.0179 15.08841065116547,6917.877,95.437,540.66,538.824,0.0
50197.0,STARLINK-3267,PAYLOAD,2024-01-06 22:21:15,15.08842944,0.0001326,53.2153,197.9486,94.3604,265.754,3.942e-05,3.4e-06,0.0,0 STARLINK-3267,1 50197U 21125AT  24006.93142607  .00000340  00000-0  39420-4 0  9996,2 50197  53.2153 197.9486 0001326  94.3604 265.7540 15.08842944117109,6917.871,95.437,540.654,538.819,0.0
50197.0,STARLINK-3267,PAYLOAD,2024-01-07 12:39:43,15.08842103,0.0001404,53.2158,195.2699,108.8695,251.2449,-9.7382e-06,-4.43e-06,0.0,0 STARLINK-3267,1 50197U 21125AT  24007.52758766 -.00000443  00000-0 -97382-5 0  9999,2 50197  53.2158 195.2699 0001404 108.8695 251.2449 15.08842103117193,6917.874,95.437,540.71,538.768,0.0
50197.0,STARLINK-3267,PAYLOAD,2024-01-07 19:01:16,15.08841662,0.0001365,53.2155,194.0819,100.9791,259.1354,2.1552e-05,5.5e-07,0.0,0 STARLINK-3267,1 50197U 21125AT  24007.79254679  .00000055  00000-0  21552-4 0  9994,2 50197  53.2155 194.0819 0001365 100.9791 259.1354 15.08841662116704,6917.875,95.437,540.685,538.796,0.0
50197.0,STARLINK-3267,PAYLOAD,2024-01-08 12:30:30,15.08889191,0.0001101,53.2158,190.8106,93.0022,267.1096,-0.00061263,-0.00010038,0.0,0 STARLINK-3267,1 50197U 21125AT  24008.52118645 -.00010038  00000-0 -61263-3 0  9994,2 50197  53.2158 190.8106 0001101  93.0022 267.1096 15.08889191117349,6917.73,95.434,540.357,538.833,0.0
50197.0,STARLINK-3267,PAYLOAD,2024-01-08 17:16:40,15.08839185,0.000136,53.2158,189.9181,102.8929,257.2215,3.504e-05,2.7e-06,0.0,0 STARLINK-3267,1 50197U 21125AT  24008.71990766  .00000270  00000-0  35040-4 0  9997,2 50197  53.2158 189.9181 0001360 102.8929 257.2215 15.08839185117377,6917.883,95.438,540.689,538.807,0.0
50197.0,STARLINK-3267,PAYLOAD,2024-01-09 12:21:17,15.08838335,0.0001326,53.2158,186.3504,98.4034,261.7108,2.878e-05,1.7e-06,0.0,0 STARLINK-3267,1 50197U 21125AT  24009.51478943  .00000170  00000-0  28780-4 0  9996,2 50197  53.2158 186.3504 0001326  98.4034 261.7108 15.08838335116967,6917.885,95.438,540.668,538.833,0.0
50197.0,STARLINK-3267,PAYLOAD,2024-01-09 18:42:51,15.08820086,0.0001328,53.216,185.1605,95.475,264.6393,-0.00012582,-2.289e-05,0.0,0 STARLINK-3267,1 50197U 21125AT  24009.77976696 -.00002289  00000-0 -12582-3 0  9999,2 50197  53.2160 185.1605 0001328  95.4750 264.6393 15.08820086117001,6917.941,95.439,540.725,538.888,0.0
50197.0,STARLINK-3267,PAYLOAD,2024-01-09 21:53:38,15.08818647,0.0001309,53.2158,184.5664,92.1987,267.9155,-0.00013011,-2.357e-05,0.0,0 STARLINK-3267,1 50197U 21125AT  24009.91224977 -.00002357  00000-0 -13011-3 0  9997,2 50197  53.2158 184.5664 0001309  92.1987 267.9155 15.08818647117553,6917.946,95.439,540.716,538.905,0.0
50197.0,STARLINK-3267,PAYLOAD,2024-01-10 18:33:38,15.08829663,0.0001299,53.2161,180.702,78.2781,281.8357,-9.3929e-06,-4.37e-06,0.0,0 STARLINK-3267,1 50197U 21125AT  24010.77336778 -.00000437  00000-0 -93929-5 0  9991,2 50197  53.2161 180.7020 0001299  78.2781 281.8357 15.08829663117151,6917.912,95.438,540.676,538.878,0.0
50197.0,STARLINK-3267,PAYLOAD,2024-01-10 20:09:01,15.0883197,0.0001262,53.2155,180.4041,94.4925,265.6212,1.879e-05,1.1e-07,0.0,0 STARLINK-3267,1 50197U 21125AT  24010.83960558  .00000011  00000-0  18790-4 0  9995,2 50197  53.2155 180.4041 0001262  94.4925 265.6212 15.08831970117697,6917.905,95.438,540.643,538.897,0.0
50197.0,STARLINK-3267,PAYLOAD,2024-01-11 19:59:48,15.088477,0.0001256,53.2157,175.944,85.8242,274.2893,0.00017824,2.551e-05,0.0,0 STARLINK-3267,1 50197U 21125AT  24011.83319671  .00002551  00000-0  17824-3 0  9997,2 50197  53.2157 175.9440 0001256  85.8242 274.2893 15.08847700117318,6917.857,95.437,540.591,538.853,0.0
50197.0,STARLINK-3267,PAYLOAD,2024-01-12 10:18:16,15.08846036,0.000137,53.2152,173.2669,82.2014,277.9134,0.00028644,4.274e-05,0.0,0 STARLINK-3267,1 50197U 21125AT  24012.42936218  .00004274  00000-0  28644-3 0  9991,2 50197  53.2152 173.2669 0001370  82.2014 277.9134 15.08846036117401,6917.862,95.437,540.675,538.779,0.0
50197.0,STARLINK-3267,PAYLOAD,2024-01-12 13:29:02,15.08850463,0.0001368,53.2149,172.673,80.711,279.4036,0.00028077,4.185e-05,0.0,0 STARLINK-3267,1 50197U 21125AT  24012.56183976  .00004185  00000-0  28077-3 0  9992,2 50197  53.2149 172.6730 0001368  80.7110 279.4036 15.08850463117953,6917.848,95.437,540.66,538.767,0.0
50197.0,STARLINK-3267,PAYLOAD,2024-01-12 19:50:35,15.08861672,0.0001354,53.2147,171.4829,80.8694,279.2452,0.00044961,6.879e-05,0.0,0 STARLINK-3267,1 50197U 21125AT  24012.82679461  .00006879  00000-0  44961-3 0  9992,2 50197  53.2147 171.4829 0001354  80.8694 279.2452 15.08861672117460,6917.814,95.436,540.616,538.742,0.0
50197.0,STARLINK-3267,PAYLOAD,2024-01-13 14:55:12,15.08849307,0.0001306,53.2173,167.9078,104.6782,255.4355,3.5282e-05,2.74e-06,0.0,0 STARLINK-3267,1 50197U 21125AT  24013.62167206  .00000274  00000-0  35282-4 0  9990,2 50197  53.2173 167.9078 0001306 104.6782 255.4355 15.08849307118117,6917.852,95.437,540.62,538.813,0.0
50197.0,STARLINK-3267,PAYLOAD,2024-01-13 19:41:21,15.08852183,0.0001326,53.215,167.0212,92.9919,267.1225,0.00013412,1.848e-05,0.0,0 STARLINK-3267,1 50197U 21125AT  24013.82039182  .00001848  00000-0  13412-3 0  9991,2 50197  53.2150 167.0212 0001326  92.9919 267.1225 15.08852183117612,6917.843,95.437,540.625,538.791,0.0
50197.0,STARLINK-3267,PAYLOAD,2024-01-14 09:59:50,15.08844381,0.0001314,53.2164,164.3419,100.5622,259.5518,-3.8218e-05,-8.96e-06,0.0,0 STARLINK-3267,1 50197U 21125AT  24014.41655297 -.00000896  00000-0 -38218-4 0  9994,2 50197  53.2164 164.3419 0001314 100.5622 259.5518 15.08844381117701,6917.867,95.437,540.641,538.823,0.0
50197.0,STARLINK-3267,PAYLOAD,2024-01-14 14:45:59,15.08852669,0.0001388,53.2151,163.4525,108.1812,251.9331,0.00011038,1.47e-05,0.0,0 STARLINK-3267,1 50197U 21125AT  24014.61526846  .00001470  00000-0  11038-3 0  9990,2 50197  53.2151 163.4525 0001388 108.1812 251.9331 15.08852669118260,6917.842,95.437,540.667,538.746,0.0
50197.0,STARLINK-3267,PAYLOAD,2024-01-14 19:32:08,15.08856753,0.0001363,53.2154,162.5607,91.7508,268.3641,0.00016394,2.323e-05,0.0,0 STARLINK-3267,1 50197U 21125AT  24014.81398631  .00002323  00000-0  16394-3 0  9999,2 50197  53.2154 162.5607 0001363  91.7508 268.3641 15.08856753117764,6917.829,95.436,540.637,538.751,0.0
